{
    "links": {
        "self": "http://www.neowsapp.com/rest/v1/neo/3826636?api_key=iIulBulltgU6a56xZRHN4H3l9WmuAYTsLGpBGhQ2"
    },
    "id": "3826636",
    "neo_reference_id": "3826636",
    "name": "(2018 PJ8)",
    "designation": "2018 PJ8",
    "nasa_jpl_url": "http://ssd.jpl.nasa.gov/sbdb.cgi?sstr=3826636",
    "absolute_magnitude_h": 25.1,
    "estimated_diameter": {
        "kilometers": {
            "estimated_diameter_min": 0.0253837029,
            "estimated_diameter_max": 0.0567596853
        },
        "meters": {
            "estimated_diameter_min": 25.3837029364,
            "estimated_diameter_max": 56.7596852866
        },
        "miles": {
            "estimated_diameter_min": 0.0157726969,
            "estimated_diameter_max": 0.0352688224
        },
        "feet": {
            "estimated_diameter_min": 83.279867942,
            "estimated_diameter_max": 186.2194458756
        }
    },
    "is_potentially_hazardous_asteroid": false,
    "close_approach_data": [
        {
            "close_approach_date": "2018-07-11",
            "close_approach_date_full": "2018-Jul-11 11:51",
            "epoch_date_close_approach": 1531309860000,
            "relative_velocity": {
                "kilometers_per_second": "7.3319725697",
                "kilometers_per_hour": "26395.1012509662",
                "miles_per_hour": "16400.8894411907"
            },
            "miss_distance": {
                "astronomical": "0.0784818128",
                "lunar": "30.5294251792",
                "kilometers": "11740712.028618736",
                "miles": "7295340.1651651168"
            },
            "orbiting_body": "Earth"
        }
    ],
    "orbital_data": {
        "orbit_id": "2",
        "orbit_determination_date": "2018-08-19 06:57:33",
        "first_observation_date": "2018-08-05",
        "last_observation_date": "2018-08-18",
        "data_arc_in_days": 13,
        "observations_used": 10,
        "orbit_uncertainty": "9",
        "minimum_orbit_intersection": ".0781501",
        "jupiter_tisserand_invariant": "3.619",
        "epoch_osculation": "2458342.5",
        "eccentricity": ".4868053146753687",
        "semi_major_axis": "2.057245122196618",
        "inclination": "7.057679315796428",
        "ascending_node_longitude": "315.1102809642184",
        "orbital_period": "1077.773469467032",
        "perihelion_distance": "1.055767263121326",
        "perihelion_argument": "317.0167969068613",
        "aphelion_distance": "3.05872298127191",
        "perihelion_time": "2458295.587186851225",
        "mean_anomaly": "15.66990950511202",
        "mean_motion": ".3340219537766346",
        "equinox": "J2000",
        "orbit_class": {
            "orbit_class_type": "AMO",
            "orbit_class_description": "Near-Earth asteroid orbits similar to that of 1221 Amor",
            "orbit_class_range": "1.017 AU < q (perihelion) < 1.3 AU"
        }
    },
    "is_sentry_object": false
}